IRIDIUM 921             
1 24873U 97034E   24272.89963638  .00092638  00000+0  16310-2 0  9996
2 24873  86.3750 236.3773 0006654 128.4771 231.7086 15.50093821491462
IRIDIUM 26              
1 24903U 97043A   24272.84100275  .00001578  00000+0  53009-3 0  9995
2 24903  86.3986 220.2510 0002229  87.5328 272.6124 14.36623659419687
IRIDIUM 22              
1 24907U 97043E   24272.41962388  .00001287  00000+0  44122-3 0  9996
2 24907  86.3982 223.7438 0002414  86.0639 274.0834 14.35491340419211
DUMMY MASS 1            
1 24925U 97048A   24272.53572148  .00001339  00000+0  14848-3 0  9995
2 24925  86.3299 256.2057 0006975  15.4837 344.6600 14.86449100466256
DUMMY MASS 2            
1 24926U 97048B   24272.45454716  .00001325  00000+0  14779-3 0  9995
2 24926  86.3297 257.8053 0008215  23.5639 336.5960 14.86204925466025
IRIDIUM 29              
1 24944U 97051A   24272.45986610  .00001353  00000+0  45985-3 0  9996
2 24944  86.3911 253.5787 0002483  84.7362 275.4118 14.35936586415702
IRIDIUM 33              
1 24946U 97051C   24272.44579981  .00000907  00000+0  31476-3 0  9990
2 24946  86.3826 252.8310 0006911 196.7204 163.3765 14.34526334415216
IRIDIUM 28              
1 24948U 97051E   24272.46484305  .00001282  00000+0  42732-3 0  9993
2 24948  86.3920 251.2395 0002078  98.1872 261.9561 14.36889740416254
